[{"OBJECT_NAME":"STARLINK-1296","OBJECT_ID":"2020-019BE","EPOCH":"2026-03-09T13:32:04.441920","MEAN_MOTION":15.30190046,"ECCENTRICITY":0.0001519,"INCLINATION":53.1594,"RA_OF_ASC_NODE":129.8314,"ARG_OF_PERICENTER":88.1784,"MEAN_ANOMALY":271.939,"EPHEMERIS_TYPE":0,"CLASSIFICATION_TYPE":"U","NORAD_CAT_ID":45412,"ELEMENT_SET_NO":999,"REV_AT_EPOCH":32995,"BSTAR":1.1663e-5,"MEAN_MOTION_DOT":-1.4e-7,"MEAN_MOTION_DDOT":0},{"OBJECT_NAME":"ASRTU-1 (AO-123)","OBJECT_ID":"2024-199AY","EPOCH":"2026-03-09T22:36:42.151392","MEAN_MOTION":15.34070057,"ECCENTRICITY":0.0012786,"INCLINATION":97.3152,"RA_OF_ASC_NODE":298.5256,"ARG_OF_PERICENTER":309.3392,"MEAN_ANOMALY":50.6717,"EPHEMERIS_TYPE":0,"CLASSIFICATION_TYPE":"U","NORAD_CAT_ID":61781,"ELEMENT_SET_NO":999,"REV_AT_EPOCH":11870,"BSTAR":0.00032267684,"MEAN_MOTION_DOT":0.00010589,"MEAN_MOTION_DDOT":0}]
